STARLINK-1063           
1 44768U 19074BH  22073.11019394 -.00002836  00000+0 -17161-3 0  9991
2 44768  53.0531 285.4501 0001725  60.0324 300.0836 15.06390129128820
STARLINK-1067           
1 44771U 19074BL  22072.90010463  .00000357  00000+0  42907-4 0  9990
2 44771  53.0540 286.3977 0002017  36.0237 324.0888 15.06391898128795
STARLINK-1068           
1 44772U 19074BM  22072.95722647 -.00000832  00000+0 -36977-4 0  9990
2 44772  53.0540 266.1512 0001688  72.7685 287.3489 15.06395796129075
JILIN-01 GAOFEN 2A      
1 44777U 19075A   22073.18675021  .00003841  00000+0  24353-3 0  9990
2 44777  97.4264 133.6103 0007993 204.5236 240.3273 15.09472201128531
NINGXIA-1 1             
1 44779U 19076A   22073.13235150 -.00000106  00000+0  15358-4 0  9991
2 44779  45.0071 291.4111 0010784 353.9643   6.1066 14.01711368119510
NINGXIA-1 2             
1 44780U 19076B   22073.11950947 -.00000130  00000+0 -53353-7 0  9997
2 44780  45.0102 291.5194 0008283 348.3667  11.6976 14.01686631119519
NINGXIA-1 3             
1 44781U 19076C   22073.17798741 -.00000050  00000+0  51930-4 0  9992
2 44781  45.0016 290.5414 0009944 337.1530  22.8851 14.01701701119521
NINGXIA-1 4             
1 44782U 19076D   22073.09156567  .00000561  00000+0  45156-3 0  9996
2 44782  45.0100 291.3285 0013369 325.1363  34.8596 14.01726513119514
NINGXIA-1 5             
1 44783U 19076E   22073.07632553  .00000185  00000+0  20566-3 0  9999
2 44783  45.0079 291.0588 0011832 341.1394  18.9002 14.01717542119515
KL-ALPHA A              
1 44785U 19077A   22073.15753565  .00000049  00000+0  52840-4 0  9998
2 44785  88.9235  34.2803 0010645 335.1961  24.8687 13.55801587114878
KL-ALPHA B              
1 44786U 19077B   22073.20215897  .00000065  00000+0  75013-4 0  9991
2 44786  88.9076  34.1656 0027417   8.0926 352.0664 13.55777933114338
RWASAT-1                
1 44790U 98067QV  22073.23299818  .00024422  00000+0  11951-3 0  9993
2 44790  51.6327  29.0083 0004825 167.0468 293.8558 15.82134348131748
AQT-D                   
1 44791U 98067QW  22073.08131451  .00264939  00000+0  11058-2 0  9991
2 44791  51.6293  29.0825 0005356 153.2276 206.9005 15.84360746131735
BEIDOU-3 M21            
1 44793U 19078A   22073.09637767 -.00000095  00000+0  10000-3 0  9999
2 44793  55.0024 353.8999 0007497   3.7370  60.9015  1.86232090 15679
BEIDOU-3 M22            
1 44794U 19078B   22072.23339723 -.00000100  00000+0  00000+0 0  9998
2 44794  54.9775 353.9225 0005474 358.8206 118.7155  1.86232657 15653
COSMOS 2542             
1 44797U 19079A   22072.89878575  .00063489  26898-5  81731-3 0  9998
2 44797  97.7025 139.2838 0336824  39.3204 323.1968 15.13399972125238
TIBA-1                  
1 44800U 19080A   22072.85800807  .00000152  00000+0  00000+0 0  9999
2 44800   0.0649 352.6650 0002158 355.3943 167.7605  1.00270731  8452
INMARSAT GX5            
1 44801U 19080B   22072.85312385  .00000071  00000+0  00000+0 0  9999
2 44801   0.0495 354.7577 0001980   0.2584 134.5330  1.00273730  8507
CARTOSAT-3              
1 44804U 19081A   22073.13026918  .00003412  00000+0  16493-3 0  9998
2 44804  97.4096 136.5985 0012710 185.6417 228.6876 15.19227940127163
MESHBED                 
1 44806U 19081C   22073.10017540  .00025849  00000+0  10259-2 0  9999
2 44806  97.4141 138.9938 0012573 188.9353 171.1663 15.25260700127357
FLOCK 4P-10             
1 44808U 19081E   22073.06353861  .00021141  00000+0  86188-3 0  9991
2 44808  97.4123 138.8998 0012400 189.4829 170.6176 15.24402845127357
FLOCK 4P-11             
1 44809U 19081F   22072.90798726  .00009616  00000+0  39652-3 0  9994
2 44809  97.4134 138.7821 0012134 190.5989 169.4994 15.24210488127330
FLOCK 4P-4              
1 44811U 19081H   22072.92990251  .00025448  00000+0  10166-2 0  9995
2 44811  97.4184 139.2259 0011459 181.2701 178.8509 15.25057271127344
FLOCK 4P-3              
1 44812U 19081J   22073.12215553  .00028882  00000+0  11532-2 0  9997
2 44812  97.4181 139.4218 0011289 181.6909 178.4293 15.25050413127374
FLOCK 4P-1              
1 44814U 19081L   22072.91396897  .00017331  00000+0  71943-3 0  9996
2 44814  97.4155 138.8981 0011000 184.3288 175.7856 15.23852147127331
FLOCK 4P-7              
1 44816U 19081N   22073.07790714  .00029886  00000+0  12198-2 0  9996
2 44816  97.4142 139.1129 0010553 183.1242 176.9931 15.24311971127362
FLOCK 4P-5              
1 44818U 19081Q   22073.11826055  .00009887  00000+0  40720-3 0  9993
2 44818  97.4146 139.2256 0009873 182.0599 178.0599 15.24264401127375
GAOFEN 12-1             
1 44819U 19082A   22073.15652310  .00000970  00000+0  13441-3 0  9994
2 44819  97.8696  95.4541 0002018 103.6599 256.4840 14.80208404123843
ALE-2                   
1 44824U 19084A   22072.92907863  .00019519  00000+0  26834-3 0  9991
2 44824  96.8995 290.6193 0010702  82.9723 277.2751 15.57255254128813
COSMOS 2543             
1 44835U 19079D   22072.93023463  .00009886  00000+0  34687-3 0  9994
2 44835  97.7768 139.6673 0093290  54.2786 306.7085 15.25513420123182
JILIN-01 GAOFEN 2B      
1 44836U 19086A   22073.14988171  .00002980  00000+0  18974-3 0  9992
2 44836  97.4281 134.1805 0005978 332.5426  84.4132 15.09499319124924
2019-087A               
1 44838U 19087A   22073.10800521  .00014342  00000+0  56759-3 0  9991
2 44838  97.4679 233.3184 0011166 236.5210 234.9508 15.25499978125928
2019-087B               
1 44839U 19087B   22073.12722240  .00008761  00000+0  36387-3 0  9998
2 44839  97.4649 232.6016 0011208 239.2969 180.8666 15.24008164125904
2019-087C               
1 44840U 19087C   22073.12577517  .00009739  00000+0  39815-3 0  9990
2 44840  97.4723 233.7101 0010489 240.1636 242.1517 15.24516211125924
2019-087D               
1 44841U 19087D   22073.09090047  .00040509  00000+0  13407-2 0  9993
2 44841  97.4489 234.5984 0008531 227.0648 240.2303 15.31176574126086
2019-087E               
1 44842U 19087E   22073.12653794  .00010055  00000+0  40762-3 0  9990
2 44842  97.4610 232.8078 0009867 240.6816 208.4943 15.24795766125941
2019-087F               
1 44843U 19087F   22073.09573564  .00007516  00000+0  31136-3 0  9996
2 44843  97.4687 233.1908 0011624 252.9145 218.9394 15.24143685125917
COSMOS 2544 [GLONASS-M] 
1 44850U 19088A   22072.71122757  .00000034  00000+0  00000+0 0  9997
2 44850  64.9308 125.9030 0013412 260.1969 267.5007  2.13102335 17530
TYVAK-0092              
1 44852U 19089A   22072.89084378  .00007612  00000+0  58138-3 0  9993
2 44852  36.9647 300.9812 0006506 214.5276 145.5045 15.01581883123580
TYVAK-0129              
1 44853U 19089B   22073.07455496  .00008048  00000+0  61733-3 0  9997
2 44853  36.9650 301.5145 0006140 205.9272 154.1163 15.01396485123708
DUCHIFAT-3              
1 44854U 19089C   22073.05536892  .00003698  00000+0  29553-3 0  9996
2 44854  36.9662 305.5671 0007129 176.8620 332.0945 15.00289717123591
LEMUR-2-JPGSQUARED      
1 44855U 19089D   22072.84425860  .00007829  00000+0  60570-3 0  9999
2 44855  36.9662 306.1703 0004864 179.2701 180.8049 15.01089291123630
QPS-SAR-1 IZANAGI       
1 44856U 19089E   22073.12380644  .00006575  00000+0  52052-3 0  9995
2 44856  36.9683 308.9692 0003592 152.7103 340.6819 15.00293977123627
RISAT-2BR1              
1 44857U 19089F   22073.09431568  .00002436  00000+0  20616-3 0  9997
2 44857  36.9646 315.2576 0005365 120.4203 239.7072 14.98513024123557
2019-089G               
1 44858U 19089G   22072.93658409  .00009647  00000+0  75481-3 0  9996
2 44858  36.9684 310.7288 0002872 133.8250 226.2729 15.00582109123598
IHOPSAT-TD              
1 44859U 19089H   22072.90849941  .00001567  00000+0  13370-3 0  9999
2 44859  36.9713 313.4115 0004961 141.5395 218.5701 14.98869108123494
LEMUR-2-HIMOMANDDAD     
1 44860U 19089J   22072.93744579  .00008324  00000+0  64594-3 0  9997
2 44860  36.9661 306.8935 0004899 171.4819 188.6007 15.00946922123510
LEMUR-2-PAPPY           
1 44861U 19089K   22073.05052502  .00008591  00000+0  66648-3 0  9998
2 44861  36.9660 305.9371 0005071 174.4115 185.6684 15.00941471123599
LEMUR-2-THEODOSIA       
1 44863U 19089M   22072.95174004  .00007847  00000+0  60809-3 0  9996
2 44863  36.9656 306.0602 0005112 177.5302 182.5466 15.01024034123494
BEIDOU-3 M19            
1 44864U 19090A   22072.34809944  .00000019  00000+0  00000+0 0  9997
2 44864  55.3566 114.7988 0018138 268.4184 120.5302  1.86231742 15249
BEIDOU-3 M20            
1 44865U 19090B   22072.43938354  .00000020  00000+0  00000+0 0  9998
2 44865  55.3594 114.8272 0016322 281.4830 258.5541  1.86231730 15215
JCSAT-18 (KACIFIC 1)    
1 44868U 19091A   22072.95255256 -.00000205  00000+0  00000+0 0  9998
2 44868   0.0160 148.7015 0000480 180.0213 335.7455  1.00267632  8481
CSG-1                   
1 44873U 19092A   22073.13598825  .00000544  00000+0  74841-4 0  9992
2 44873  97.8867 258.1729 0001437  99.2503 260.8848 14.82160110120980
CHEOPS                  
1 44874U 19092B   22072.93718703  .00000250  00000+0  65860-4 0  9994
2 44874  98.2381 261.0535 0009667 271.0653  88.9437 14.56924969118884
ANGELS                  
1 44876U 19092D   22072.92686748  .00003450  00000+0  17607-3 0  9998
2 44876  97.4722 257.5583 0011528 336.8186  23.2526 15.17337913123757
EYESAT-NANO             
1 44877U 19092E   22072.74868079  .00009049  00000+0  41991-3 0  9991
2 44877  97.4630 257.9457 0011824 335.5869  24.4804 15.20203764123812
OPS-SAT                 
1 44878U 19092F   22073.01622706  .00009870  00000+0  48399-3 0  9999
2 44878  97.4786 257.9105 0012285 316.8339  43.1931 15.18257098123704
2019-093A               
1 44879U 19093A   22073.16732154  .00001562  00000+0  20353-3 0  9996
2 44879  97.9007 153.9476 0016463 132.1464 228.1169 14.81912316120684
2019-093B               
1 44880U 19093B   22073.16613720  .00001703  00000+0  22122-3 0  9998
2 44880  97.9006 153.9765 0016479 133.0090 227.2536 14.81923366120672
